[{"OBJECT_NAME":"STARLINK-5519","OBJECT_ID":"2023-094F","EPOCH":"2026-03-09T06:30:00.034272","MEAN_MOTION":15.02538514,"ECCENTRICITY":0.00011708,"INCLINATION":43.0053,"RA_OF_ASC_NODE":32.8891,"ARG_OF_PERICENTER":155.2836,"MEAN_ANOMALY":204.8062,"EPHEMERIS_TYPE":0,"CLASSIFICATION_TYPE":"U","NORAD_CAT_ID":57223,"ELEMENT_SET_NO":999,"REV_AT_EPOCH":14705,"BSTAR":-0.00012475269,"MEAN_MOTION_DOT":-1.889e-5,"MEAN_MOTION_DDOT":0},{"OBJECT_NAME":"IMS-1","OBJECT_ID":"2008-021D","EPOCH":"2026-03-09T22:27:26.707392","MEAN_MOTION":15.03517095,"ECCENTRICITY":0.00068607,"INCLINATION":97.9418,"RA_OF_ASC_NODE":52.6663,"ARG_OF_PERICENTER":75.5168,"MEAN_ANOMALY":284.6817,"EPHEMERIS_TYPE":0,"CLASSIFICATION_TYPE":"U","NORAD_CAT_ID":32786,"ELEMENT_SET_NO":999,"REV_AT_EPOCH":96828,"BSTAR":0.00046947389,"MEAN_MOTION_DOT":6.344e-5,"MEAN_MOTION_DDOT":0}]
